{"type": "FeatureCollection", "features": [{"type": "Feature", "properties": {"norad_id": 36828, "name": "BEIDOU-2 IGSO-1 (C06)", "group": "beidou", "lat": -35.35217593245935, "lon": 133.94195215877633, "alt_km": 35820.606466409314, "timestamp": "2025-12-08T19:31:49.075189+00:00", "meta": {"OBJECT_NAME": "BEIDOU-2 IGSO-1 (C06)", "OBJECT_ID": "2010-036A", "EPOCH": "2025-12-07T22:42:27.537984", "MEAN_MOTION": 1.00277452, "ECCENTRICITY": 0.00512392, "INCLINATION": 54.2867, "RA_OF_ASC_NODE": 164.691, "ARG_OF_PERICENTER": 215.8688, "MEAN_ANOMALY": 144.8467, "EPHEMERIS_TYPE": 0, "CLASSIFICATION_TYPE": "U", "NORAD_CAT_ID": 36828, "ELEMENT_SET_NO": 999, "REV_AT_EPOCH": 5618, "BSTAR": 0, "MEAN_MOTION_DOT": -6.8e-07, "MEAN_MOTION_DDOT": 0}, "tle": {"line1": "1 36828U 10036A   25341.94615206 -.00000068  00000+0  00000+0 0  9998", "line2": "2 36828  54.2867 164.6910 0051239 215.8688 144.8467  1.00277452 56188"}}, "geometry": {"type": "Point", "coordinates": [133.94195215877633, -35.35217593245935]}}, {"type": "Feature", "properties": {"norad_id": 37210, "name": "BEIDOU-2 G4 (C04)", "group": "beidou", "lat": 3.1179423319432606, "lon": 170.73503250804086, "alt_km": 35785.32486258236, "timestamp": "2025-12-08T19:31:49.075209+00:00", "meta": {"OBJECT_NAME": "BEIDOU-2 G4 (C04)", "OBJECT_ID": "2010-057A", "EPOCH": "2025-12-08T05:48:19.884384", "MEAN_MOTION": 1.00271476, "ECCENTRICITY": 0.00109061, "INCLINATION": 3.1733, "RA_OF_ASC_NODE": 69.9493, "ARG_OF_PERICENTER": 190.2714, "MEAN_ANOMALY": 64.1886, "EPHEMERIS_TYPE": 0, "CLASSIFICATION_TYPE": "U", "NORAD_CAT_ID": 37210, "ELEMENT_SET_NO": 999, "REV_AT_EPOCH": 5537, "BSTAR": 0, "MEAN_MOTION_DOT": -1.1e-06, "MEAN_MOTION_DDOT": 0}, "tle": {"line1": "1 37210U 10057A   25342.24189681 -.00000110  00000+0  00000+0 0  9992", "line2": "2 37210   3.1733  69.9493 0010906 190.2714  64.1886  1.00271476 55373"}}, "geometry": {"type": "Point", "coordinates": [170.73503250804086, 3.1179423319432606]}}, {"type": "Feature", "properties": {"norad_id": 37256, "name": "BEIDOU-2 IGSO-2 (C07)", "group": "beidou", "lat": -17.51014376936751, "lon": 110.71804086561743, "alt_km": 35581.85393264484, "timestamp": "2025-12-08T19:31:49.075222+00:00", "meta": {"OBJECT_NAME": "BEIDOU-2 IGSO-2 (C07)", "OBJECT_ID": "2010-068A", "EPOCH": "2025-12-03T17:22:36.030432", "MEAN_MOTION": 1.0028871, "ECCENTRICITY": 0.00492335, "INCLINATION": 47.9043, "RA_OF_ASC_NODE": 274.2613, "ARG_OF_PERICENTER": 216.1442, "MEAN_ANOMALY": 310.2369, "EPHEMERIS_TYPE": 0, "CLASSIFICATION_TYPE": "U", "NORAD_CAT_ID": 37256, "ELEMENT_SET_NO": 999, "REV_AT_EPOCH": 5483, "BSTAR": 0, "MEAN_MOTION_DOT": -2.25e-06, "MEAN_MOTION_DDOT": 0}, "tle": {"line1": "1 37256U 10068A   25337.72402813 -.00000225  00000+0  00000+0 0  9993", "line2": "2 37256  47.9043 274.2613 0049233 216.1442 310.2369  1.00288710 54839"}}, "geometry": {"type": "Point", "coordinates": [110.71804086561743, -17.51014376936751]}}, {"type": "Feature", "properties": {"norad_id": 37384, "name": "BEIDOU-2 IGSO-3 (C08)", "group": "beidou", "lat": 59.08693379199459, "lon": 103.89235079716603, "alt_km": 35833.93084145045, "timestamp": "2025-12-08T19:31:49.075234+00:00", "meta": {"OBJECT_NAME": "BEIDOU-2 IGSO-3 (C08)", "OBJECT_ID": "2011-013A", "EPOCH": "2025-12-07T14:00:04.361184", "MEAN_MOTION": 1.00271436, "ECCENTRICITY": 0.0035334, "INCLINATION": 62.1366, "RA_OF_ASC_NODE": 41.9657, "ARG_OF_PERICENTER": 187.0582, "MEAN_ANOMALY": 165.2458, "EPHEMERIS_TYPE": 0, "CLASSIFICATION_TYPE": "U", "NORAD_CAT_ID": 37384, "ELEMENT_SET_NO": 999, "REV_AT_EPOCH": 5373, "BSTAR": 0, "MEAN_MOTION_DOT": -1.91e-06, "MEAN_MOTION_DDOT": 0}, "tle": {"line1": "1 37384U 11013A   25341.58338381 -.00000191  00000+0  00000+0 0  9995", "line2": "2 37384  62.1366  41.9657 0035334 187.0582 165.2458  1.00271436 53735"}}, "geometry": {"type": "Point", "coordinates": [103.89235079716603, 59.08693379199459]}}, {"type": "Feature", "properties": {"norad_id": 37763, "name": "BEIDOU-2 IGSO-4 (C09)", "group": "beidou", "lat": -45.2823211259909, "lon": 121.34894942485246, "alt_km": 35555.091939547754, "timestamp": "2025-12-08T19:31:49.075245+00:00", "meta": {"OBJECT_NAME": "BEIDOU-2 IGSO-4 (C09)", "OBJECT_ID": "2011-038A", "EPOCH": "2025-12-01T12:32:09.960864", "MEAN_MOTION": 1.00284074, "ECCENTRICITY": 0.01487808, "INCLINATION": 54.5808, "RA_OF_ASC_NODE": 167.4476, "ARG_OF_PERICENTER": 230.2031, "MEAN_ANOMALY": 315.0387, "EPHEMERIS_TYPE": 0, "CLASSIFICATION_TYPE": "U", "NORAD_CAT_ID": 37763, "ELEMENT_SET_NO": 999, "REV_AT_EPOCH": 5266, "BSTAR": 0, "MEAN_MOTION_DOT": 1.01e-06, "MEAN_MOTION_DDOT": 0}, "tle": {"line1": "1 37763U 11038A   25335.52233751  .00000101  00000+0  00000+0 0  9995", "line2": "2 37763  54.5808 167.4476 0148780 230.2031 315.0387  1.00284074 52664"}}, "geometry": {"type": "Point", "coordinates": [121.34894942485246, -45.2823211259909]}}, {"type": "Feature", "properties": {"norad_id": 37948, "name": "BEIDOU-2 IGSO-5 (C10)", "group": "beidou", "lat": -6.6356060641518555, "lon": 99.88142093456155, "alt_km": 35391.618815837304, "timestamp": "2025-12-08T19:31:49.075257+00:00", "meta": {"OBJECT_NAME": "BEIDOU-2 IGSO-5 (C10)", "OBJECT_ID": "2011-073A", "EPOCH": "2025-12-07T19:12:14.882400", "MEAN_MOTION": 1.00291658, "ECCENTRICITY": 0.01104068, "INCLINATION": 48.0298, "RA_OF_ASC_NODE": 273.9181, "ARG_OF_PERICENTER": 222.1784, "MEAN_ANOMALY": 321.4594, "EPHEMERIS_TYPE": 0, "CLASSIFICATION_TYPE": "U", "NORAD_CAT_ID": 37948, "ELEMENT_SET_NO": 999, "REV_AT_EPOCH": 5121, "BSTAR": 0, "MEAN_MOTION_DOT": -1.91e-06, "MEAN_MOTION_DDOT": 0}, "tle": {"line1": "1 37948U 11073A   25341.80017225 -.00000191  00000+0  00000+0 0  9993", "line2": "2 37948  48.0298 273.9181 0110406 222.1784 321.4594  1.00291658 51212"}}, "geometry": {"type": "Point", "coordinates": [99.88142093456155, -6.6356060641518555]}}, {"type": "Feature", "properties": {"norad_id": 38091, "name": "BEIDOU-2 G5 (C05)", "group": "beidou", "lat": -0.03832371324964771, "lon": 69.61758808988577, "alt_km": 35821.00080163607, "timestamp": "2025-12-08T19:31:49.075268+00:00", "meta": {"OBJECT_NAME": "BEIDOU-2 G5 (C05)", "OBJECT_ID": "2012-008A", "EPOCH": "2025-12-08T03:36:39.993696", "MEAN_MOTION": 1.00274017, "ECCENTRICITY": 0.00125312, "INCLINATION": 3.0977, "RA_OF_ASC_NODE": 70.7225, "ARG_OF_PERICENTER": 226.8008, "MEAN_ANOMALY": 252.5412, "EPHEMERIS_TYPE": 0, "CLASSIFICATION_TYPE": "U", "NORAD_CAT_ID": 38091, "ELEMENT_SET_NO": 999, "REV_AT_EPOCH": 5045, "BSTAR": 0, "MEAN_MOTION_DOT": 5.8e-07, "MEAN_MOTION_DDOT": 0}, "tle": {"line1": "1 38091U 12008A   25342.15046289  .00000058  00000+0  00000+0 0  9994", "line2": "2 38091   3.0977  70.7225 0012531 226.8008 252.5412  1.00274017 50457"}}, "geometry": {"type": "Point", "coordinates": [69.61758808988577, -0.03832371324964771]}}, {"type": "Feature", "properties": {"norad_id": 38250, "name": "BEIDOU-2 M3 (C11)", "group": "beidou", "lat": 13.25145658700665, "lon": 122.10360447559255, "alt_km": 21550.034619044804, "timestamp": "2025-12-08T19:31:49.075280+00:00", "meta": {"OBJECT_NAME": "BEIDOU-2 M3 (C11)", "OBJECT_ID": "2012-018A", "EPOCH": "2025-12-05T21:12:32.531040", "MEAN_MOTION": 1.86229708, "ECCENTRICITY": 0.00244284, "INCLINATION": 55.926, "RA_OF_ASC_NODE": 311.388, "ARG_OF_PERICENTER": 273.8805, "MEAN_ANOMALY": 85.8231, "EPHEMERIS_TYPE": 0, "CLASSIFICATION_TYPE": "U", "NORAD_CAT_ID": 38250, "ELEMENT_SET_NO": 999, "REV_AT_EPOCH": 9234, "BSTAR": 0, "MEAN_MOTION_DOT": -7e-07, "MEAN_MOTION_DDOT": 0}, "tle": {"line1": "1 38250U 12018A   25339.88370985 -.00000070  00000+0  00000+0 0  9996", "line2": "2 38250  55.9260 311.3880 0024428 273.8805  85.8231  1.86229708 92342"}}, "geometry": {"type": "Point", "coordinates": [122.10360447559255, 13.25145658700665]}}, {"type": "Feature", "properties": {"norad_id": 38251, "name": "BEIDOU-2 M4 (C12)", "group": "beidou", "lat": -24.191481221658666, "lon": 148.25894813917841, "alt_km": 21515.056529906677, "timestamp": "2025-12-08T19:31:49.075290+00:00", "meta": {"OBJECT_NAME": "BEIDOU-2 M4 (C12)", "OBJECT_ID": "2012-018B", "EPOCH": "2025-12-07T23:07:34.804992", "MEAN_MOTION": 1.86229443, "ECCENTRICITY": 0.00155166, "INCLINATION": 55.8258, "RA_OF_ASC_NODE": 310.5475, "ARG_OF_PERICENTER": 277.4657, "MEAN_ANOMALY": 82.3439, "EPHEMERIS_TYPE": 0, "CLASSIFICATION_TYPE": "U", "NORAD_CAT_ID": 38251, "ELEMENT_SET_NO": 999, "REV_AT_EPOCH": 9238, "BSTAR": 0, "MEAN_MOTION_DOT": -7.1e-07, "MEAN_MOTION_DDOT": 0}, "tle": {"line1": "1 38251U 12018B   25341.96359728 -.00000071  00000+0  00000+0 0  9992", "line2": "2 38251  55.8258 310.5475 0015516 277.4657  82.3439  1.86229443 92385"}}, "geometry": {"type": "Point", "coordinates": [148.25894813917841, -24.191481221658666]}}, {"type": "Feature", "properties": {"norad_id": 38775, "name": "BEIDOU-2 M6 (C14)", "group": "beidou", "lat": 35.252170990528406, "lon": 97.21916066964222, "alt_km": 21507.557499651593, "timestamp": "2025-12-08T19:31:49.075352+00:00", "meta": {"OBJECT_NAME": "BEIDOU-2 M6 (C14)", "OBJECT_ID": "2012-050B", "EPOCH": "2025-12-06T01:31:40.709568", "MEAN_MOTION": 1.86230702, "ECCENTRICITY": 0.00109743, "INCLINATION": 56.3728, "RA_OF_ASC_NODE": 69.289, "ARG_OF_PERICENTER": 345.7667, "MEAN_ANOMALY": 14.2153, "EPHEMERIS_TYPE": 0, "CLASSIFICATION_TYPE": "U", "NORAD_CAT_ID": 38775, "ELEMENT_SET_NO": 999, "REV_AT_EPOCH": 8971, "BSTAR": 0, "MEAN_MOTION_DOT": -4.7e-07, "MEAN_MOTION_DDOT": 0}, "tle": {"line1": "1 38775U 12050B   25340.06366562 -.00000047  00000+0  00000+0 0  9996", "line2": "2 38775  56.3728  69.2890 0010974 345.7667  14.2153  1.86230702 89716"}}, "geometry": {"type": "Point", "coordinates": [97.21916066964222, 35.252170990528406]}}]}